#aV2013  9  1  0  0  0.00000000     288 DD+AD WGS84 FIT  NGA
## 1756      0.00000000   300.00000000 56536 0.0000000000000
+   31     1  2  3  4  5  6  7  8  9 10 11 12 13 14 15 16 17
+         18 19 20 21 22 23 24 25 26 27 28 29 31 32  0  0  0
+          0  0  0  0  0  0  0  0  0  0  0  0  0  0  0  0  0
+          0  0  0  0  0  0  0  0  0  0  0  0  0  0  0  0  0
+          0  0  0  0  0  0  0  0  0  0  0  0  0  0  0  0  0
++         2  2  2  2  2  2  2  2  2  2  2  2  2  2  2  2  2
++         2  2  2  2  2  2  2  2  2  2  2  2  2  2  2  0  0
++         0  0  0  0  0  0  0  0  0  0  0  0  0  0  0  0  0
++         0  0  0  0  0  0  0  0  0  0  0  0  0  0  0  0  0
++         0  0  0  0  0  0  0  0  0  0  0  0  0  0  0  0  0
%c cc cc ccc ccc cccc cccc cccc cccc ccccc ccccc ccccc ccccc
%c cc cc ccc ccc cccc cccc cccc cccc ccccc ccccc ccccc ccccc
%f  0.0000000  0.000000000  0.00000000000  0.000000000000000
%f  0.0000000  0.000000000  0.00000000000  0.000000000000000
%i    0    0    0    0      0      0      0      0         0
%i    0    0    0    0      0      0      0      0         0
/*      NGA, ST. LOUIS,MO.                                  
/*   EPHEMERIS COMPUTED FROM  1 DAYS OF DATA
/*   EPOCHA SMOOTHER  
/* CCCCCCCCCCCCCCCCCCCCCCCCCCCCCCCCCCCCCCCCCCCCCCCCCCCCCCCCC
*  2013  9  1 23 20  0.00000000                                                 
P  1  15242.455538  13356.330471 -17247.509512     70.048848                    
V  1 -21872.998149   -149.760673 -19372.656154      0.043143                    
P  2   9977.483802 -14207.036545  20196.019941    449.347458                    
V  2  25233.644877   2910.618567 -11042.626249      0.017841                    
P  3  -6699.829538  24826.244111  -6758.917251    253.900306                    
V  3  -6684.963942   5594.226989  29711.219736      0.050154                    
P  4  22104.254601  -7577.947527  12577.868067    316.006878                    
V  4  16137.690121   3965.787480 -25112.605115      0.101384                    
P  5   1403.547796 -21851.697894  14900.979570   -399.669176                    
V  5  10424.278095  16142.907238  22797.197259     -0.000345                    
P  6 -13088.054135  22858.969758   -685.314575     32.500651                    
V  6  -3710.231332  -1105.117304  31561.555035      0.192571                    
P  7  25566.071205   6026.904600   5026.292534    253.962722                    
V  7  -6418.635279   1379.541866  31023.060306      0.042128                    
P  8  26107.203534   1070.612073  -6213.014671      8.192313                    
V  8   7536.347505   2589.745688  30890.452540      0.001506                    
P  9  25846.715536  -2288.341600  -6497.847788    265.485019                    
V  9   7338.612968   2394.773553  30778.192419      0.027132                    
P 10  13808.365198  -6957.365418  21284.584064    -92.915967                    
V 10  11790.068709  25202.048442    996.400683     -0.013870                    
P 11   8083.311136  15318.697431 -20630.752876   -415.853323                    
V 11 -24707.432364   6247.801180  -4897.103671     -0.036441                    
P 12 -10576.823771 -24489.142914    -84.316161    153.930389                    
V 12   1739.822068   -702.531505 -32140.504834      0.021624                    
P 13  14692.493708   4939.123201  21458.288879     84.153071                    
V 13 -17503.877776  21181.617837   6928.060345     -0.037904                    
P 14 -20061.039484  13584.817736 -10486.603493    216.736601                    
V 14   6755.278736 -12106.137515 -28182.643806     -0.008554                    
P 15  -2453.952422 -19760.668267 -17476.395428   -135.049261                    
V 15  13917.649346 -17566.049912  18195.520255     -0.018441                    
P 16  -2135.833212  21414.724662  15305.484407   -247.554160                    
V 16  -9028.532282 -17452.967470  23436.262022      0.007326                    
P 17  19832.587905 -12198.097752 -12333.851167    -17.175860                    
V 17  -7740.695319  14317.733028 -26368.273824     -0.037991                    
P 18 -18287.935965  -9776.585104 -16358.144612    271.881139                    
V 18  -7156.195730 -20458.478357  19376.586902      0.019763                    
P 19  -3449.990956  21068.257357 -15634.737466   -401.032784                    
V 19 -14359.488783  13824.870137  22374.493538     -0.028358                    
P 20  15112.601056  21494.015933   3973.034623    119.598938                    
V 20   -771.755241   6424.504380 -30406.216877      0.025034                    
P 21 -26478.661401  -3928.996643   2490.566697   -316.581079                    
V 21   2684.207222  -3023.971706  30579.824003     -0.019219                    
P 22 -15716.292870   3670.893916 -20903.968538    182.762399                    
V 22 -11234.763397 -24718.326807   3919.638325      0.015462                    
P 23   8161.139957  14158.716314  20949.138590     52.050193                    
V 23 -16100.144825  21078.584191  -8409.734035     -0.034936                    
P 24 -11214.409294 -14397.351790 -19321.468159    -12.949747                    
V 24  24539.116900    453.109675 -14539.565901     -0.007131                    
P 25 -17006.246946 -16562.106630  11955.155367    142.514762                    
V 25  -4835.021226 -14561.404761 -26819.163892      0.043617                    
P 26  11495.286722 -22464.068020  -8372.916560    170.049721                    
V 26   8036.162480  -6083.528496  29938.086031      0.178465                    
P 27 -11671.411584  23307.278228  -5077.003843    -31.389586                    
V 27  -5911.288414   3750.772637  30885.125981     -0.047116                    
P 28  15549.656998   1296.038701 -20939.464245    289.097263                    
V 28   9941.510077  26041.071065   8587.669454      0.030663                    
P 29 -13134.726555  -7619.632025  21828.782778    467.157156                    
V 29  16617.479965 -22043.872258   2349.231808      0.031191                    
P 31 -21114.827789   7586.551682  14602.718803    324.894084                    
V 31 -17845.418639  -3331.907248 -24082.096313      0.008282                    
P 32   6854.925025  25694.756234  -3580.578499   -551.509030                    
V 32  -4168.666421  -3380.998762 -30707.645888      0.023208                    
EOF
